IRIDIUM 7               
1 24793U 97020B   24259.85725441  .00001314  00000+0  45115-3 0  9998
2 24793  86.3918 291.8547 0002033  88.0891 272.0538 14.35424097432533
IRIDIUM 5               
1 24795U 97020D   24259.90688348  .00016271  00000+0  14906-2 0  9991
2 24795  86.3945 209.6470 0120811  41.1332 319.8922 14.89344216444568
IRIDIUM 4               
1 24796U 97020E   24260.15394062  .00001235  00000+0  41577-3 0  9997
2 24796  86.3909 288.7850 0002271  88.3242 271.8215 14.36350124433153
IRIDIUM 914             
1 24836U 97030A   24260.14843933  .00001518  00000+0  47377-3 0  9996
2 24836  86.3904 298.2139 0003678  71.7431 288.4168 14.40247238429777
IRIDIUM 16              
1 24841U 97030F   24260.18804326  .00001465  00000+0  47696-3 0  9994
2 24841  86.4047 320.4203 0001062 167.9214 192.2010 14.38145221427877
IRIDIUM 911             
1 24842U 97030G   24260.19225211  .00001742  00000+0  47484-3 0  9999
2 24842  86.4476 319.4633 0012112 294.5070  65.4869 14.46860669435437
IRIDIUM 17              
1 24870U 97034B   24259.86646970  .00001881  00000+0  62541-3 0  9990
2 24870  86.4017 350.1166 0002465 134.3642 225.7758 14.37249474424170
IRIDIUM 920             
1 24871U 97034C   24259.91926096  .00001633  00000+0  50271-3 0  9999
2 24871  86.4007 329.9700 0009380 265.6160  94.3968 14.40951626427072
